CCSDS_OMM_VERS = 2.0
CREATION_DATE  = 
ORIGINATOR     = 

OBJECT_NAME    = COSMOS 1933
OBJECT_ID      = 1988-020A
CENTER_NAME    = EARTH
REF_FRAME      = TEME
TIME_SYSTEM    = UTC
MEAN_ELEMENT_THEORY = SGP/SGP4

EPOCH          = 2025-12-28T20:17:44.484864
MEAN_MOTION    = 15.17251508
ECCENTRICITY   = .0006504
INCLINATION    = 82.5135
RA_OF_ASC_NODE = 320.9639
ARG_OF_PERICENTER = 87.1056
MEAN_ANOMALY   = 273.0921

EPHEMERIS_TYPE = 0
CLASSIFICATION_TYPE = U
NORAD_CAT_ID   = 18958
ELEMENT_SET_NO = 999
REV_AT_EPOCH   = 3948
BSTAR          = .32239E-3
MEAN_MOTION_DOT = .6447E-4
MEAN_MOTION_DDOT = 0

CCSDS_OMM_VERS = 2.0
CREATION_DATE  = 
ORIGINATOR     = 

OBJECT_NAME    = SL-3 R/B
OBJECT_ID      = 1988-032B
CENTER_NAME    = EARTH
REF_FRAME      = TEME
TIME_SYSTEM    = UTC
MEAN_ELEMENT_THEORY = SGP/SGP4

EPOCH          = 2025-12-28T19:19:22.730016
MEAN_MOTION    = 15.18911243
ECCENTRICITY   = .0028208
INCLINATION    = 97.5097
RA_OF_ASC_NODE = 341.4174
ARG_OF_PERICENTER = 118.8950
MEAN_ANOMALY   = 241.5119

EPHEMERIS_TYPE = 0
CLASSIFICATION_TYPE = U
NORAD_CAT_ID   = 19046
ELEMENT_SET_NO = 999
REV_AT_EPOCH   = 4134
BSTAR          = .32509E-3
MEAN_MOTION_DOT = .6787E-4
MEAN_MOTION_DDOT = 0

CCSDS_OMM_VERS = 2.0
CREATION_DATE  = 
ORIGINATOR     = 

OBJECT_NAME    = SL-16 R/B
OBJECT_ID      = 1988-039B
CENTER_NAME    = EARTH
REF_FRAME      = TEME
TIME_SYSTEM    = UTC
MEAN_ELEMENT_THEORY = SGP/SGP4

EPOCH          = 2025-12-28T16:07:20.540928
MEAN_MOTION    = 14.19599763
ECCENTRICITY   = .0019538
INCLINATION    = 71.0124
RA_OF_ASC_NODE = 218.7122
ARG_OF_PERICENTER = 89.0221
MEAN_ANOMALY   = 271.3142

EPHEMERIS_TYPE = 0
CLASSIFICATION_TYPE = U
NORAD_CAT_ID   = 19120
ELEMENT_SET_NO = 999
REV_AT_EPOCH   = 94830
BSTAR          = -.98607E-5
MEAN_MOTION_DOT = -.69E-6
MEAN_MOTION_DDOT = 0

CCSDS_OMM_VERS = 2.0
CREATION_DATE  = 
ORIGINATOR     = 

OBJECT_NAME    = COSMOS 1953
OBJECT_ID      = 1988-050A
CENTER_NAME    = EARTH
REF_FRAME      = TEME
TIME_SYSTEM    = UTC
MEAN_ELEMENT_THEORY = SGP/SGP4

EPOCH          = 2025-12-17T18:00:23.829120
MEAN_MOTION    = 15.26995692
ECCENTRICITY   = .00135407
INCLINATION    = 82.5093
RA_OF_ASC_NODE = 240.5536
ARG_OF_PERICENTER = 56.0210
MEAN_ANOMALY   = 304.2313

EPHEMERIS_TYPE = 0
CLASSIFICATION_TYPE = U
NORAD_CAT_ID   = 19210
ELEMENT_SET_NO = 999
REV_AT_EPOCH   = 2527
BSTAR          = .17925093E-3
MEAN_MOTION_DOT = .4793E-4
MEAN_MOTION_DDOT = 0

CCSDS_OMM_VERS = 2.0
CREATION_DATE  = 
ORIGINATOR     = 

OBJECT_NAME    = SL-8 R/B
OBJECT_ID      = 1988-053B
CENTER_NAME    = EARTH
REF_FRAME      = TEME
TIME_SYSTEM    = UTC
MEAN_ELEMENT_THEORY = SGP/SGP4

EPOCH          = 2025-12-28T19:27:44.143776
MEAN_MOTION    = 14.38869449
ECCENTRICITY   = .0018985
INCLINATION    = 74.0463
RA_OF_ASC_NODE = 243.1008
ARG_OF_PERICENTER = 81.1591
MEAN_ANOMALY   = 346.9005

EPHEMERIS_TYPE = 0
CLASSIFICATION_TYPE = U
NORAD_CAT_ID   = 19257
ELEMENT_SET_NO = 999
REV_AT_EPOCH   = 96640
BSTAR          = .11145E-3
MEAN_MOTION_DOT = .318E-5
MEAN_MOTION_DDOT = 0

CCSDS_OMM_VERS = 2.0
CREATION_DATE  = 
ORIGINATOR     = 

OBJECT_NAME    = COSMOS 1975
OBJECT_ID      = 1988-093A
CENTER_NAME    = EARTH
REF_FRAME      = TEME
TIME_SYSTEM    = UTC
MEAN_ELEMENT_THEORY = SGP/SGP4

EPOCH          = 2025-12-28T18:35:21.146784
MEAN_MOTION    = 15.26711354
ECCENTRICITY   = .0012852
INCLINATION    = 82.5196
RA_OF_ASC_NODE = 188.7733
ARG_OF_PERICENTER = 62.4380
MEAN_ANOMALY   = 297.8162

EPHEMERIS_TYPE = 0
CLASSIFICATION_TYPE = U
NORAD_CAT_ID   = 19573
ELEMENT_SET_NO = 999
REV_AT_EPOCH   = 858
BSTAR          = .38603E-3
MEAN_MOTION_DOT = .10197E-3
MEAN_MOTION_DDOT = 0

CCSDS_OMM_VERS = 2.0
CREATION_DATE  = 
ORIGINATOR     = 

OBJECT_NAME    = SL-14 R/B
OBJECT_ID      = 1988-093B
CENTER_NAME    = EARTH
REF_FRAME      = TEME
TIME_SYSTEM    = UTC
MEAN_ELEMENT_THEORY = SGP/SGP4

EPOCH          = 2025-12-28T19:35:24.825984
MEAN_MOTION    = 14.85567781
ECCENTRICITY   = .0019217
INCLINATION    = 82.5320
RA_OF_ASC_NODE = 108.5814
ARG_OF_PERICENTER = 272.8437
MEAN_ANOMALY   = 203.3554

EPHEMERIS_TYPE = 0
CLASSIFICATION_TYPE = U
NORAD_CAT_ID   = 19574
ELEMENT_SET_NO = 999
REV_AT_EPOCH   = 99051
BSTAR          = .80554E-4
MEAN_MOTION_DOT = .722E-5
MEAN_MOTION_DDOT = 0

CCSDS_OMM_VERS = 2.0
CREATION_DATE  = 
ORIGINATOR     = 

OBJECT_NAME    = SL-16 R/B
OBJECT_ID      = 1988-102B
CENTER_NAME    = EARTH
REF_FRAME      = TEME
TIME_SYSTEM    = UTC
MEAN_ELEMENT_THEORY = SGP/SGP4

EPOCH          = 2025-12-28T20:18:06.966144
MEAN_MOTION    = 14.16142884
ECCENTRICITY   = .0012117
INCLINATION    = 71.0007
RA_OF_ASC_NODE = 300.5543
ARG_OF_PERICENTER = 124.2234
MEAN_ANOMALY   = 236.0039

EPHEMERIS_TYPE = 0
CLASSIFICATION_TYPE = U
NORAD_CAT_ID   = 19650
ELEMENT_SET_NO = 999
REV_AT_EPOCH   = 91686
BSTAR          = -.6984E-5
MEAN_MOTION_DOT = -.62E-6
MEAN_MOTION_DDOT = 0

CCSDS_OMM_VERS = 2.0
CREATION_DATE  = 
ORIGINATOR     = 

OBJECT_NAME    = INTERCOSMOS 24
OBJECT_ID      = 1989-080A
CENTER_NAME    = EARTH
REF_FRAME      = TEME
TIME_SYSTEM    = UTC
MEAN_ELEMENT_THEORY = SGP/SGP4

EPOCH          = 2025-12-28T19:00:21.551040
MEAN_MOTION    = 12.59465710
ECCENTRICITY   = .1189031
INCLINATION    = 82.6060
RA_OF_ASC_NODE = 150.5173
ARG_OF_PERICENTER = 97.3000
MEAN_ANOMALY   = 276.4499

EPHEMERIS_TYPE = 0
CLASSIFICATION_TYPE = U
NORAD_CAT_ID   = 20261
ELEMENT_SET_NO = 999
REV_AT_EPOCH   = 65787
BSTAR          = .22911E-3
MEAN_MOTION_DOT = .81E-5
MEAN_MOTION_DDOT = 0

CCSDS_OMM_VERS = 2.0
CREATION_DATE  = 
ORIGINATOR     = 

OBJECT_NAME    = SL-14 R/B
OBJECT_ID      = 1989-080C
CENTER_NAME    = EARTH
REF_FRAME      = TEME
TIME_SYSTEM    = UTC
MEAN_ELEMENT_THEORY = SGP/SGP4

EPOCH          = 2025-12-28T15:57:59.963904
MEAN_MOTION    = 12.50425739
ECCENTRICITY   = .1230326
INCLINATION    = 82.5911
RA_OF_ASC_NODE = 218.7964
ARG_OF_PERICENTER = 347.1960
MEAN_ANOMALY   = 10.0309

EPHEMERIS_TYPE = 0
CLASSIFICATION_TYPE = U
NORAD_CAT_ID   = 20262
ELEMENT_SET_NO = 999
REV_AT_EPOCH   = 65127
BSTAR          = .11271E-3
MEAN_MOTION_DOT = .383E-5
MEAN_MOTION_DDOT = 0

CCSDS_OMM_VERS = 2.0
CREATION_DATE  = 
ORIGINATOR     = 

OBJECT_NAME    = DELTA 1 R/B
OBJECT_ID      = 1989-089B
CENTER_NAME    = EARTH
REF_FRAME      = TEME
TIME_SYSTEM    = UTC
MEAN_ELEMENT_THEORY = SGP/SGP4

EPOCH          = 2025-12-28T13:46:29.121024
MEAN_MOTION    = 14.50585770
ECCENTRICITY   = .0068825
INCLINATION    = 97.0742
RA_OF_ASC_NODE = 216.3013
ARG_OF_PERICENTER = 348.5985
MEAN_ANOMALY   = 11.3650

EPHEMERIS_TYPE = 0
CLASSIFICATION_TYPE = U
NORAD_CAT_ID   = 20323
ELEMENT_SET_NO = 999
REV_AT_EPOCH   = 88542
BSTAR          = .12665E-3
MEAN_MOTION_DOT = .476E-5
MEAN_MOTION_DDOT = 0

CCSDS_OMM_VERS = 2.0
CREATION_DATE  = 
ORIGINATOR     = 

OBJECT_NAME    = ARIANE 40 R/B
OBJECT_ID      = 1990-005H
CENTER_NAME    = EARTH
REF_FRAME      = TEME
TIME_SYSTEM    = UTC
MEAN_ELEMENT_THEORY = SGP/SGP4

EPOCH          = 2025-12-28T17:20:57.687360
MEAN_MOTION    = 14.39810573
ECCENTRICITY   = .0011074
INCLINATION    = 98.3223
RA_OF_ASC_NODE = 60.4476
ARG_OF_PERICENTER = 62.4444
MEAN_ANOMALY   = 297.7868

EPHEMERIS_TYPE = 0
CLASSIFICATION_TYPE = U
NORAD_CAT_ID   = 20443
ELEMENT_SET_NO = 999
REV_AT_EPOCH   = 88259
BSTAR          = .13118E-3
MEAN_MOTION_DOT = .369E-5
MEAN_MOTION_DDOT = 0

