COSMOS 1933             
1 18958U 88020A   25362.84565376  .00006447  00000+0  32239-3 0  9993
2 18958  82.5135 320.9639 0006504  87.1056 273.0921 15.17251508 39484
SL-3 R/B                
1 19046U 88032B   25362.80512419  .00006787  00000+0  32509-3 0  9998
2 19046  97.5097 341.4174 0028208 118.8950 241.5119 15.18911243 41345
SL-16 R/B               
1 19120U 88039B   25362.67176552 -.00000069  00000+0 -98607-5 0  9999
2 19120  71.0124 218.7122 0019538  89.0221 271.3142 14.19599763948309
COSMOS 1953             
1 19210U 88050A   25351.75027580  .00004793  00000+0  17925-3 0  9993
2 19210  82.5093 240.5536 0013540  56.0210 304.2313 15.26995692 25270
SL-8 R/B                
1 19257U 88053B   25362.81092759  .00000318  00000+0  11145-3 0  9993
2 19257  74.0463 243.1008 0018985  81.1591 346.9005 14.38869449966402
COSMOS 1975             
1 19573U 88093A   25362.77455031  .00010197  00000+0  38603-3 0  9993
2 19573  82.5196 188.7733 0012852  62.4380 297.8162 15.26711354  8587
SL-14 R/B               
1 19574U 88093B   25362.81625956  .00000722  00000+0  80554-4 0  9990
2 19574  82.5320 108.5814 0019217 272.8437 203.3554 14.85567781990516
SL-16 R/B               
1 19650U 88102B   25362.84591396 -.00000062  00000+0 -69840-5 0  9994
2 19650  71.0007 300.5543 0012117 124.2234 236.0039 14.16142884916860
INTERCOSMOS 24          
1 20261U 89080A   25362.79191610  .00000810  00000+0  22911-3 0  9994
2 20261  82.6060 150.5173 1189031  97.3000 276.4499 12.59465710657873
SL-14 R/B               
1 20262U 89080C   25362.66527736  .00000383  00000+0  11271-3 0  9995
2 20262  82.5911 218.7964 1230326 347.1960  10.0309 12.50425739651276
DELTA 1 R/B             
1 20323U 89089B   25362.57394816  .00000476  00000+0  12665-3 0  9994
2 20323  97.0742 216.3013 0068825 348.5985  11.3650 14.50585770885423
ARIANE 40 R/B           
1 20443U 90005H   25362.72288990  .00000369  00000+0  13118-3 0  9994
2 20443  98.3223  60.4476 0011074  62.4444 297.7868 14.39810573882596
